[{"OBJECT_NAME":"ONEWEB-0652","OBJECT_ID":"2023-029U","EPOCH":"2026-03-09T16:24:16.712928","MEAN_MOTION":13.14502721,"ECCENTRICITY":0.00016023,"INCLINATION":87.8979,"RA_OF_ASC_NODE":309.5737,"ARG_OF_PERICENTER":76.0563,"MEAN_ANOMALY":284.0745,"EPHEMERIS_TYPE":0,"CLASSIFICATION_TYPE":"U","NORAD_CAT_ID":55814,"ELEMENT_SET_NO":999,"REV_AT_EPOCH":14629,"BSTAR":-0.0003418781,"MEAN_MOTION_DOT":-1.14e-6,"MEAN_MOTION_DDOT":0},{"OBJECT_NAME":"DELTA 1 DEB","OBJECT_ID":"1975-052HL","EPOCH":"2026-03-09T00:55:20.681184","MEAN_MOTION":12.83892144,"ECCENTRICITY":0.03239349,"INCLINATION":99.5801,"RA_OF_ASC_NODE":89.7704,"ARG_OF_PERICENTER":3.277,"MEAN_ANOMALY":22.1579,"EPHEMERIS_TYPE":0,"CLASSIFICATION_TYPE":"U","NORAD_CAT_ID":21566,"ELEMENT_SET_NO":999,"REV_AT_EPOCH":63081,"BSTAR":0.00056338036,"MEAN_MOTION_DOT":1.34e-6,"MEAN_MOTION_DDOT":0}]
